{
  "type": "FeatureCollection",
  "features": [
    {
      "type": "Feature",
      "properties": {
        "norad_id": 32275,
        "name": "COSMOS 2433 (720)",
        "group": "glo-ops",
        "lat": 42.249944502675135,
        "lon": 117.6592646982726,
        "alt_km": 19132.109256053223,
        "timestamp": "2025-12-21T05:44:51.846666+00:00",
        "meta_object_name": "COSMOS 2433 (720)",
        "meta_object_id": "2007-052A",
        "meta_epoch": "2025-12-19T04:33:13.000320",
        "meta_mean_motion": 2.13104199,
        "meta_eccentricity": 0.0005237,
        "meta_inclination": 65.6796,
        "meta_ra_of_asc_node": 321.9886,
        "meta_arg_of_pericenter": 255.1824,
        "meta_mean_anomaly": 104.7517,
        "meta_ephemeris_type": 0,
        "meta_classification_type": "U",
        "meta_norad_cat_id": 32275,
        "meta_element_set_no": 999,
        "meta_rev_at_epoch": 14122,
        "meta_bstar": 0,
        "meta_mean_motion_dot": -5.9e-07,
        "meta_mean_motion_ddot": 0,
        "tle_line1": "1 32275U 07052A   25353.18973380 -.00000059  00000+0  00000+0 0  9993",
        "tle_line2": "2 32275  65.6796 321.9886 0005237 255.1824 104.7517  2.13104199141226"
      },
      "geometry": {
        "type": "Point",
        "coordinates": [
          117.6592646982726,
          42.249944502675135
        ]
      }
    },
    {
      "type": "Feature",
      "properties": {
        "norad_id": 32276,
        "name": "COSMOS 2432 (719)",
        "group": "glo-ops",
        "lat": 62.63029308854908,
        "lon": 22.787988883776165,
        "alt_km": 19138.788762393066,
        "timestamp": "2025-12-21T05:44:51.846688+00:00",
        "meta_object_name": "COSMOS 2432 (719)",
        "meta_object_id": "2007-052B",
        "meta_epoch": "2025-12-20T10:16:04.130976",
        "meta_mean_motion": 2.1310343,
        "meta_eccentricity": 0.00113416,
        "meta_inclination": 65.6947,
        "meta_ra_of_asc_node": 322.0715,
        "meta_arg_of_pericenter": 314.1043,
        "meta_mean_anomaly": 220.0986,
        "meta_ephemeris_type": 0,
        "meta_classification_type": "U",
        "meta_norad_cat_id": 32276,
        "meta_element_set_no": 999,
        "meta_rev_at_epoch": 14127,
        "meta_bstar": 0,
        "meta_mean_motion_dot": -5.2e-07,
        "meta_mean_motion_ddot": 0,
        "tle_line1": "1 32276U 07052B   25354.42782559 -.00000052  00000+0  00000+0 0  9991",
        "tle_line2": "2 32276  65.6947 322.0715 0011341 314.1043 220.0986  2.13103430141274"
      },
      "geometry": {
        "type": "Point",
        "coordinates": [
          22.787988883776165,
          62.63029308854908
        ]
      }
    },
    {
      "type": "Feature",
      "properties": {
        "norad_id": 32393,
        "name": "COSMOS 2434 (721)",
        "group": "glo-ops",
        "lat": 20.550077730916897,
        "lon": -151.6792086850737,
        "alt_km": 19119.704458175533,
        "timestamp": "2025-12-21T05:44:51.846703+00:00",
        "meta_object_name": "COSMOS 2434 (721)",
        "meta_object_id": "2007-065A",
        "meta_epoch": "2025-12-20T12:03:15.367680",
        "meta_mean_motion": 2.13101459,
        "meta_eccentricity": 0.00047811,
        "meta_inclination": 64.3153,
        "meta_ra_of_asc_node": 197.9412,
        "meta_arg_of_pericenter": 71.786,
        "meta_mean_anomaly": 105.6785,
        "meta_ephemeris_type": 0,
        "meta_classification_type": "U",
        "meta_norad_cat_id": 32393,
        "meta_element_set_no": 999,
        "meta_rev_at_epoch": 13996,
        "meta_bstar": 0,
        "meta_mean_motion_dot": 1e-06,
        "meta_mean_motion_ddot": 0,
        "tle_line1": "1 32393U 07065A   25354.50226120  .00000100  00000+0  00000+0 0  9994",
        "tle_line2": "2 32393  64.3153 197.9412 0004781  71.7860 105.6785  2.13101459139962"
      },
      "geometry": {
        "type": "Point",
        "coordinates": [
          -151.6792086850737,
          20.550077730916897
        ]
      }
    },
    {
      "type": "Feature",
      "properties": {
        "norad_id": 32395,
        "name": "COSMOS 2436 (723)",
        "group": "glo-ops",
        "lat": 21.33850184098583,
        "lon": 7.153523218319827,
        "alt_km": 19165.4195810324,
        "timestamp": "2025-12-21T05:44:51.846717+00:00",
        "meta_object_name": "COSMOS 2436 (723)",
        "meta_object_id": "2007-065C",
        "meta_epoch": "2025-12-20T08:05:38.789664",
        "meta_mean_motion": 2.13100373,
        "meta_eccentricity": 0.00177856,
        "meta_inclination": 64.3241,
        "meta_ra_of_asc_node": 198.0173,
        "meta_arg_of_pericenter": 9.8756,
        "meta_mean_anomaly": 174.0477,
        "meta_ephemeris_type": 0,
        "meta_classification_type": "U",
        "meta_norad_cat_id": 32395,
        "meta_element_set_no": 999,
        "meta_rev_at_epoch": 13991,
        "meta_bstar": 0,
        "meta_mean_motion_dot": 1.01e-06,
        "meta_mean_motion_ddot": 0,
        "tle_line1": "1 32395U 07065C   25354.33725451  .00000101  00000+0  00000+0 0  9999",
        "tle_line2": "2 32395  64.3241 198.0173 0017785   9.8756 174.0477  2.13100373139919"
      },
      "geometry": {
        "type": "Point",
        "coordinates": [
          7.153523218319827,
          21.33850184098583
        ]
      }
    },
    {
      "type": "Feature",
      "properties": {
        "norad_id": 36111,
        "name": "COSMOS 2456 (730)",
        "group": "glo-ops",
        "lat": -0.1404410294532641,
        "lon": -102.87291585410836,
        "alt_km": 19134.12326566334,
        "timestamp": "2025-12-21T05:44:51.846729+00:00",
        "meta_object_name": "COSMOS 2456 (730)",
        "meta_object_id": "2009-070A",
        "meta_epoch": "2025-12-20T03:13:18.516576",
        "meta_mean_motion": 2.13103685,
        "meta_eccentricity": 0.00033011,
        "meta_inclination": 64.904,
        "meta_ra_of_asc_node": 77.0852,
        "meta_arg_of_pericenter": 296.9564,
        "meta_mean_anomaly": 115.2996,
        "meta_ephemeris_type": 0,
        "meta_classification_type": "U",
        "meta_norad_cat_id": 36111,
        "meta_element_set_no": 999,
        "meta_rev_at_epoch": 12461,
        "meta_bstar": 0,
        "meta_mean_motion_dot": -2.2e-07,
        "meta_mean_motion_ddot": 0,
        "tle_line1": "1 36111U 09070A   25354.13424209 -.00000022  00000+0  00000+0 0  9995",
        "tle_line2": "2 36111  64.9040  77.0852 0003301 296.9564 115.2996  2.13103685124610"
      },
      "geometry": {
        "type": "Point",
        "coordinates": [
          -102.87291585410836,
          -0.1404410294532641
        ]
      }
    },
    {
      "type": "Feature",
      "properties": {
        "norad_id": 36112,
        "name": "COSMOS 2457 (733)",
        "group": "glo-ops",
        "lat": -44.55233056898817,
        "lon": 49.465111061645146,
        "alt_km": 19145.251796347133,
        "timestamp": "2025-12-21T05:44:51.846740+00:00",
        "meta_object_name": "COSMOS 2457 (733)",
        "meta_object_id": "2009-070B",
        "meta_epoch": "2025-12-19T12:47:22.832160",
        "meta_mean_motion": 2.13101086,
        "meta_eccentricity": 0.0004579,
        "meta_inclination": 64.8894,
        "meta_ra_of_asc_node": 76.9529,
        "meta_arg_of_pericenter": 161.1215,
        "meta_mean_anomaly": 278.8833,
        "meta_ephemeris_type": 0,
        "meta_classification_type": "U",
        "meta_norad_cat_id": 36112,
        "meta_element_set_no": 999,
        "meta_rev_at_epoch": 12460,
        "meta_bstar": 0,
        "meta_mean_motion_dot": -2.8e-07,
        "meta_mean_motion_ddot": 0,
        "tle_line1": "1 36112U 09070B   25353.53290315 -.00000028  00000+0  00000+0 0  9994",
        "tle_line2": "2 36112  64.8894  76.9529 0004579 161.1215 278.8833  2.13101086124608"
      },
      "geometry": {
        "type": "Point",
        "coordinates": [
          49.465111061645146,
          -44.55233056898817
        ]
      }
    },
    {
      "type": "Feature",
      "properties": {
        "norad_id": 36402,
        "name": "COSMOS 2460 (732)",
        "group": "glo-ops",
        "lat": -45.11522777486795,
        "lon": -66.73092171734937,
        "alt_km": 19129.294144107178,
        "timestamp": "2025-12-21T05:44:51.846752+00:00",
        "meta_object_name": "COSMOS 2460 (732)",
        "meta_object_id": "2010-007C",
        "meta_epoch": "2025-12-19T13:42:43.098624",
        "meta_mean_motion": 2.131063,
        "meta_eccentricity": 0.0002543,
        "meta_inclination": 65.526,
        "meta_ra_of_asc_node": 320.5423,
        "meta_arg_of_pericenter": 279.9868,
        "meta_mean_anomaly": 189.087,
        "meta_ephemeris_type": 0,
        "meta_classification_type": "U",
        "meta_norad_cat_id": 36402,
        "meta_element_set_no": 999,
        "meta_rev_at_epoch": 12290,
        "meta_bstar": 0,
        "meta_mean_motion_dot": -5.7e-07,
        "meta_mean_motion_ddot": 0,
        "tle_line1": "1 36402U 10007C   25353.57133216 -.00000057  00000+0  00000+0 0  9990",
        "tle_line2": "2 36402  65.5260 320.5423 0002543 279.9868 189.0870  2.13106300122906"
      },
      "geometry": {
        "type": "Point",
        "coordinates": [
          -66.73092171734937,
          -45.11522777486795
        ]
      }
    }
  ]
}